[
    {
        "Altitude(m)": 717401.3686362437,
        "Argument of Periapsis(deg)": 0.0034170363559881197,
        "Eccentricity": 0.0,
        "Inclination(deg)": 45.0,
        "Latitude(deg)": -43.990931601702,
        "Longitude(deg)": -53.99172386421978,
        "Mean Anomaly(deg)": -78.35823500575576,
        "RAAN(deg)": 119.99677441756255,
        "Satellite Name": "Constellation 1 545",
        "Satellite Number": 545,
        "Semi-Major Axis(m)": 7083131.272910544,
        "Time(s)": 57
    },
    {
        "Altitude(m)": 717396.4015624432,
        "Argument of Periapsis(deg)": 0.003476984362233526,
        "Eccentricity": 0.0,
        "Inclination(deg)": 45.0,
        "Latitude(deg)": -43.978921596935386,
        "Longitude(deg)": -53.913551449739856,
        "Mean Anomaly(deg)": -78.29753386550586,
        "RAAN(deg)": 119.99671782839695,
        "Satellite Name": "Constellation 1 545",
        "Satellite Number": 545,
        "Semi-Major Axis(m)": 7083131.272910544,
        "Time(s)": 58
    },
    {
        "Altitude(m)": 717391.4098707438,
        "Argument of Periapsis(deg)": 0.003536932368478932,
        "Eccentricity": 0.0,
        "Inclination(deg)": 45.0,
        "Latitude(deg)": -43.96685235667561,
        "Longitude(deg)": -53.83541237352403,
        "Mean Anomaly(deg)": -78.2368327252559,
        "RAAN(deg)": 119.9966612392314,
        "Satellite Name": "Constellation 1 545",
        "Satellite Number": 545,
        "Semi-Major Axis(m)": 7083131.272910544,
        "Time(s)": 59
    },
    {
        "Altitude(m)": 717386.3935795175,
        "Argument of Periapsis(deg)": 0.003596880374724337,
        "Eccentricity": 0.0,
        "Inclination(deg)": 45.0,
        "Latitude(deg)": -43.954723929221075,
        "Longitude(deg)": -53.75730643491575,
        "Mean Anomaly(deg)": -78.17613158500608,
        "RAAN(deg)": 119.9966046500658,
        "Satellite Name": "Constellation 1 545",
        "Satellite Number": 545,
        "Semi-Major Axis(m)": 7083131.272910544,
        "Time(s)": 60
    },
    {
        "Altitude(m)": 717381.35270723,
        "Argument of Periapsis(deg)": 0.0036568283809697427,
        "Eccentricity": 0.0,
        "Inclination(deg)": 45.0,
        "Latitude(deg)": -43.94253636305772,
        "Longitude(deg)": -53.67923393703924,
        "Mean Anomaly(deg)": -78.11543044475617,
        "RAAN(deg)": 119.99654806090025,
        "Satellite Name": "Constellation 1 545",
        "Satellite Number": 545,
        "Semi-Major Axis(m)": 7083131.272910544,
        "Time(s)": 61
    },
    {
        "Altitude(m)": 717376.2872724371,
        "Argument of Periapsis(deg)": 0.003716776387215149,
        "Eccentricity": 0.0,
        "Inclination(deg)": 45.0,
        "Latitude(deg)": -43.93028970685751,
        "Longitude(deg)": -53.6011950144102,
        "Mean Anomaly(deg)": -78.05472930450627,
        "RAAN(deg)": 119.9964914717347,
        "Satellite Name": "Constellation 1 545",
        "Satellite Number": 545,
        "Semi-Major Axis(m)": 7083131.272910544,
        "Time(s)": 62
    },
    {
        "Altitude(m)": 717371.1972937811,
        "Argument of Periapsis(deg)": 0.003776724393460554,
        "Eccentricity": 0.0,
        "Inclination(deg)": 45.0,
        "Latitude(deg)": -43.917984009477735,
        "Longitude(deg)": -53.52318980103105,
        "Mean Anomaly(deg)": -77.99402816425633,
        "RAAN(deg)": 119.9964348825691,
        "Satellite Name": "Constellation 1 545",
        "Satellite Number": 545,
        "Semi-Major Axis(m)": 7083131.272910544,
        "Time(s)": 63
    },
    {
        "Altitude(m)": 717366.0827900016,
        "Argument of Periapsis(deg)": 0.003836672399705959,
        "Eccentricity": 0.0,
        "Inclination(deg)": 45.0,
        "Latitude(deg)": -43.905619319960195,
        "Longitude(deg)": -53.445218430390106,
        "Mean Anomaly(deg)": -77.9333270240065,
        "RAAN(deg)": 119.99637829340355,
        "Satellite Name": "Constellation 1 545",
        "Satellite Number": 545,
        "Semi-Major Axis(m)": 7083131.272910544,
        "Time(s)": 64
    },
    {
        "Altitude(m)": 717360.9437799214,
        "Argument of Periapsis(deg)": 0.003896620405951365,
        "Eccentricity": 0.0,
        "Inclination(deg)": 45.0,
        "Latitude(deg)": -43.89319568753025,
        "Longitude(deg)": -53.36728103546013,
        "Mean Anomaly(deg)": -77.87262588375654,
        "RAAN(deg)": 119.99632170423797,
        "Satellite Name": "Constellation 1 545",
        "Satellite Number": 545,
        "Semi-Major Axis(m)": 7083131.272910544,
        "Time(s)": 65
    },
    {
        "Altitude(m)": 717355.7802824526,
        "Argument of Periapsis(deg)": 0.003956568412196771,
        "Eccentricity": 0.0,
        "Inclination(deg)": 45.0,
        "Latitude(deg)": -43.880713161596084,
        "Longitude(deg)": -53.289377748697454,
        "Mean Anomaly(deg)": -77.81192474350667,
        "RAAN(deg)": 119.9962651150724,
        "Satellite Name": "Constellation 1 545",
        "Satellite Number": 545,
        "Semi-Major Axis(m)": 7083131.272910544,
        "Time(s)": 66
    },
    {
        "Altitude(m)": 717350.5923166019,
        "Argument of Periapsis(deg)": 0.004016516418442176,
        "Eccentricity": 0.0,
        "Inclination(deg)": 45.0,
        "Latitude(deg)": -43.86817179174785,
        "Longitude(deg)": -53.21150887013787,
        "Mean Anomaly(deg)": -77.75122360325678,
        "RAAN(deg)": 119.99620852590682,
        "Satellite Name": "Constellation 1 545",
        "Satellite Number": 545,
        "Semi-Major Axis(m)": 7083131.272910544,
        "Time(s)": 67
    },
    {
        "Altitude(m)": 717345.3799014587,
        "Argument of Periapsis(deg)": 0.004076464424687581,
        "Eccentricity": 0.0,
        "Inclination(deg)": 45.0,
        "Latitude(deg)": -43.85557162775625,
        "Longitude(deg)": -53.13367419500618,
        "Mean Anomaly(deg)": -77.69052246300684,
        "RAAN(deg)": 119.99615193674126,
        "Satellite Name": "Constellation 1 545",
        "Satellite Number": 545,
        "Semi-Major Axis(m)": 7083131.272910544,
        "Time(s)": 68
    },
    {
        "Altitude(m)": 717340.1430562121,
        "Argument of Periapsis(deg)": 0.004136412430932987,
        "Eccentricity": 0.0,
        "Inclination(deg)": 45.0,
        "Latitude(deg)": -43.842912719572666,
        "Longitude(deg)": -53.05587402229946,
        "Mean Anomaly(deg)": -77.629821322757,
        "RAAN(deg)": 119.9960953475757,
        "Satellite Name": "Constellation 1 545",
        "Satellite Number": 545,
        "Semi-Major Axis(m)": 7083131.272910544,
        "Time(s)": 69
    },
    {
        "Altitude(m)": 717334.8818001335,
        "Argument of Periapsis(deg)": 0.004196360437178394,
        "Eccentricity": 0.0,
        "Inclination(deg)": 45.0,
        "Latitude(deg)": -43.830195117327484,
        "Longitude(deg)": -52.97810848239571,
        "Mean Anomaly(deg)": -77.56912018250704,
        "RAAN(deg)": 119.99603875841012,
        "Satellite Name": "Constellation 1 545",
        "Satellite Number": 545,
        "Semi-Major Axis(m)": 7083131.272910544,
        "Time(s)": 70
    },
    {
        "Altitude(m)": 717329.5961525829,
        "Argument of Periapsis(deg)": 0.004256308443423799,
        "Eccentricity": 0.0,
        "Inclination(deg)": 45.0,
        "Latitude(deg)": -43.81741887132963,
        "Longitude(deg)": -52.90037770515138,
        "Mean Anomaly(deg)": -77.50841904225716,
        "RAAN(deg)": 119.99598216924456,
        "Satellite Name": "Constellation 1 545",
        "Satellite Number": 545,
        "Semi-Major Axis(m)": 7083131.272910544,
        "Time(s)": 71
    },
    {
        "Altitude(m)": 717324.2861330097,
        "Argument of Periapsis(deg)": 0.004316256449669204,
        "Eccentricity": 0.0,
        "Inclination(deg)": 45.0,
        "Latitude(deg)": -43.804584032065456,
        "Longitude(deg)": -52.82268181989893,
        "Mean Anomaly(deg)": -77.44771790200727,
        "RAAN(deg)": 119.99592558007897,
        "Satellite Name": "Constellation 1 545",
        "Satellite Number": 545,
        "Semi-Major Axis(m)": 7083131.272910544,
        "Time(s)": 72
    },
    {
        "Altitude(m)": 717318.951760963,
        "Argument of Periapsis(deg)": 0.00437620445591461,
        "Eccentricity": 0.0,
        "Inclination(deg)": 45.0,
        "Latitude(deg)": -43.79169065019802,
        "Longitude(deg)": -52.74502095544688,
        "Mean Anomaly(deg)": -77.38701676175737,
        "RAAN(deg)": 119.99586899091342,
        "Satellite Name": "Constellation 1 545",
        "Satellite Number": 545,
        "Semi-Major Axis(m)": 7083131.272910544,
        "Time(s)": 73
    },
    {
        "Altitude(m)": 717313.5930560619,
        "Argument of Periapsis(deg)": 0.004436152462160016,
        "Eccentricity": 0.0,
        "Inclination(deg)": 45.0,
        "Latitude(deg)": -43.77873877656634,
        "Longitude(deg)": -52.66739540817541,
        "Mean Anomaly(deg)": -77.32631562150749,
        "RAAN(deg)": 119.99581240174784,
        "Satellite Name": "Constellation 1 545",
        "Satellite Number": 545,
        "Semi-Major Axis(m)": 7083131.272910544,
        "Time(s)": 74
    },
    {
        "Altitude(m)": 717308.2100380323,
        "Argument of Periapsis(deg)": 0.0044961004684054215,
        "Eccentricity": 0.0,
        "Inclination(deg)": 45.0,
        "Latitude(deg)": -43.765728462183766,
        "Longitude(deg)": -52.58980496964624,
        "Mean Anomaly(deg)": -77.26561448125753,
        "RAAN(deg)": 119.99575581258227,
        "Satellite Name": "Constellation 1 545",
        "Satellite Number": 545,
        "Semi-Major Axis(m)": 7083131.272910544,
        "Time(s)": 75
    }
]